NORAD_CAT_ID,OBJECT_NAME,OBJECT_TYPE,EPOCH,MEAN_MOTION,ECCENTRICITY,INCLINATION,RA_OF_ASC_NODE,ARG_OF_PERICENTER,MEAN_ANOMALY,BSTAR,MEAN_MOTION_DOT,MEAN_MOTION_DDOT,TLE_LINE0,TLE_LINE1,TLE_LINE2,SEMIMAJOR_AXIS,PERIOD,APOGEE,PERIGEE,DECAYED
50835.0,STARLINK-3310,PAYLOAD,2022-09-26 05:05:25,15.08856498,0.0001806,53.2182,77.6185,62.2102,297.9073,8.955399999999999e-05,1.138e-05,0.0,0 STARLINK-3310,1 50835U 22001AJ  22269.21209954  .00001138  00000-0  89554-4 0  9997,2 50835  53.2182  77.6185 0001806  62.2102 297.9073 15.08856498 39975,6917.83,95.437,540.944,538.446,0.0
50835.0,STARLINK-3310,PAYLOAD,2022-09-26 22:34:41,15.08839727,0.0001789,53.2179,74.3481,56.2186,303.8976,4.0014e-05,3.49e-06,0.0,0 STARLINK-3310,1 50835U 22001AJ  22269.94075474  .00000349  00000-0  40014-4 0  9996,2 50835  53.2179  74.3481 0001789  56.2186 303.8976 15.08839727 41348,6917.880999999999,95.438,540.984,538.509,0.0
50835.0,STARLINK-3310,PAYLOAD,2022-09-27 12:53:09,15.08839906,0.0001791,53.2177,71.6718,56.4802,303.6361,1.4696e-06,-2.65e-06,0.0,0 STARLINK-3310,1 50835U 22001AJ  22270.53691591 -.00000265  00000-0  14696-5 0  9993,2 50835  53.2177  71.6718 0001791  56.4802 303.6361 15.08839906 40174,6917.880999999999,95.438,540.985,538.507,0.0
50835.0,STARLINK-3310,PAYLOAD,2022-09-27 20:50:06,15.08798815,0.0002218,53.2171,70.1877,58.2811,301.8398,0.00068002,0.00010539,0.0,0 STARLINK-3310,1 50835U 22001AJ  22270.86812751  .00010539  00000-0  68002-3 0  9994,2 50835  53.2171  70.1877 0002218  58.2811 301.8398 15.08798815 41481,6918.005999999999,95.44,541.406,538.337,0.0
50835.0,STARLINK-3310,PAYLOAD,2022-09-28 12:43:56,15.08843684,0.000241,53.2167,67.2129,71.4432,288.6821,0.00016182,2.288e-05,0.0,0 STARLINK-3310,1 50835U 22001AJ  22271.53051155  .00002288  00000-0  16182-3 0  9996,2 50835  53.2167  67.2129 0002410  71.4432 288.6821 15.08843684 40323,6917.869000000002,95.437,541.401,538.067,0.0
50835.0,STARLINK-3310,PAYLOAD,2022-09-28 19:05:28,15.08841471,0.0001661,53.217,66.0218,48.8215,311.2920000000001,0.00014378,2.001e-05,0.0,0 STARLINK-3310,1 50835U 22001AJ  22271.79547199  .00002001  00000-0  14378-3 0  9990,2 50835  53.2170  66.0218 0001661  48.8215 311.2920 15.08841471 40366,6917.876,95.437,540.89,538.592,0.0
50835.0,STARLINK-3310,PAYLOAD,2022-09-29 10:59:20,15.08830052,0.0001395,53.2167,63.0459,48.3762,311.7349,-4.797100000000001e-05,-1.051e-05,0.0,0 STARLINK-3310,1 50835U 22001AJ  22272.45787844 -.00001051  00000-0 -47971-4 0  9999,2 50835  53.2167  63.0459 0001395  48.3762 311.7349 15.08830052 41726,6917.911,95.438,540.741,538.811,0.0
50835.0,STARLINK-3310,PAYLOAD,2022-09-29 17:20:53,15.08833253,0.0001394,53.2176,61.8568,46.1894,313.9213,-0.00010621,-1.978e-05,0.0,0 STARLINK-3310,1 50835U 22001AJ  22272.72283841 -.00001978  00000-0 -10621-3 0  9996,2 50835  53.2176  61.8568 0001394  46.1894 313.9213 15.08833253 40509,6917.901,95.438,540.73,538.802,0.0
50835.0,STARLINK-3310,PAYLOAD,2022-09-30 10:50:07,15.08854981,0.0001959,53.2138,58.5857,7.431,352.6711,-0.00086702,-0.00014066,0.0,0 STARLINK-3310,1 50835U 22001AJ  22273.45147385 -.00014066  00000-0 -86702-3 0  9994,2 50835  53.2138  58.5857 0001959   7.4310 352.6711 15.08854981 41876,6917.835,95.437,541.055,538.344,0.0
50835.0,STARLINK-3310,PAYLOAD,2022-09-30 18:47:03,15.08849195,0.0001744,53.2165,57.1009,27.9753,332.1332,-0.00015268,-2.718e-05,0.0,0 STARLINK-3310,1 50835U 22001AJ  22273.78267939 -.00002718  00000-0 -15268-3 0  9998,2 50835  53.2165  57.1009 0001744  27.9753 332.1332 15.08849195 40669,6917.852,95.437,540.924,538.511,0.0
50835.0,STARLINK-3310,PAYLOAD,2022-10-01 02:43:59,15.08840785,0.0001715,53.2165,55.6141,44.4891,315.6239,0.00031617,4.748e-05,0.0,0 STARLINK-3310,1 50835U 22001AJ  22274.11388730  .00004748  00000-0  31617-3 0  9998,2 50835  53.2165  55.6141 0001715  44.4891 315.6239 15.08840785 41977,6917.878000000002,95.438,540.929,538.557,0.0
50835.0,STARLINK-3310,PAYLOAD,2022-10-01 13:51:41,15.08852549,0.0001813,53.218,53.5324,49.1345,310.9804,0.00051864,7.979e-05,0.0,0 STARLINK-3310,1 50835U 22001AJ  22274.57756245  .00007979  00000-0  51864-3 0  9993,2 50835  53.2180  53.5324 0001813  49.1345 310.9804 15.08852549 40784,6917.842,95.437,540.961,538.453,0.0
50835.0,STARLINK-3310,PAYLOAD,2022-10-01 18:37:50,15.08860537,0.0001681,53.2175,52.6406,48.0584,312.0552,0.00065252,0.00010118,0.0,0 STARLINK-3310,1 50835U 22001AJ  22274.77628028  .00010118  00000-0  65252-3 0  9997,2 50835  53.2175  52.6406 0001681  48.0584 312.0552 15.08860537 40818,6917.818,95.436,540.846,538.52,0.0
50835.0,STARLINK-3310,PAYLOAD,2022-10-02 02:34:46,15.08853831,0.0002008,53.2178,51.1535,49.6263,310.4905,0.00034376,5.189e-05,0.0,0 STARLINK-3310,1 50835U 22001AJ  22275.10748264  .00005189  00000-0  34376-3 0  9995,2 50835  53.2178  51.1535 0002008  49.6263 310.4905 15.08853831 42122,6917.8380000000025,95.437,541.092,538.314,0.0
50835.0,STARLINK-3310,PAYLOAD,2022-10-02 12:07:05,15.0883951,0.0001793,53.2179,49.3694,50.1957,309.9193,3.4278e-06,-2.34e-06,0.0,0 STARLINK-3310,1 50835U 22001AJ  22275.50492627 -.00000234  00000-0  34278-5 0  9998,2 50835  53.2179  49.3694 0001793  50.1957 309.9193 15.08839510 40921,6917.882,95.438,540.987,538.507,0.0
50835.0,STARLINK-3310,PAYLOAD,2022-10-02 18:28:38,15.08842157,0.0001799,53.2174,48.1804,48.6972,311.4175,3.3597e-05,2.47e-06,0.0,0 STARLINK-3310,1 50835U 22001AJ  22275.76988478  .00000247  00000-0  33597-4 0  9995,2 50835  53.2174  48.1804 0001799  48.6972 311.4175 15.08842157 40964,6917.874,95.437,540.9830000000002,538.494,0.0
50835.0,STARLINK-3310,PAYLOAD,2022-10-03 11:57:52,15.08856095,0.0001857,53.2174,44.9095,48.5264,311.5887,0.00076256,0.00011874,0.0,0 STARLINK-3310,1 50835U 22001AJ  22276.49852140  .00011874  00000-0  76256-3 0  9998,2 50835  53.2174  44.9095 0001857  48.5264 311.5887 15.08856095 41078,6917.831,95.437,540.981,538.4119999999998,0.0
50835.0,STARLINK-3310,PAYLOAD,2022-10-03 18:19:24,15.08865548,0.0001885999999999,53.2173,43.7205,47.2783,312.8368,0.00094715,0.00014829,0.0,0 STARLINK-3310,1 50835U 22001AJ  22276.76347705  .00014829  00000-0  94715-3 0  9997,2 50835  53.2173  43.7205 0001886  47.2783 312.8368 15.08865548 41117,6917.802,95.436,540.972,538.363,0.0
50835.0,STARLINK-3310,PAYLOAD,2022-10-04 13:24:01,15.08868718,0.0001489,53.2176,40.1513,50.5202,309.5922,0.00048201,7.397e-05,0.0,0 STARLINK-3310,1 50835U 22001AJ  22277.55834541  .00007397  00000-0  48201-3 0  9995,2 50835  53.2176  40.1513 0001489  50.5202 309.5922 15.08868718 41239,6917.793000000002,95.436,540.688,538.628,0.0
50835.0,STARLINK-3310,PAYLOAD,2022-10-04 14:59:24,15.08861945,0.0001898,53.2185,39.8533,48.6846,311.4309,0.00022209,3.2500000000000004e-05,0.0,0 STARLINK-3310,1 50835U 22001AJ  22277.62458596  .00003250  00000-0  22209-3 0  9999,2 50835  53.2185  39.8533 0001898  48.6846 311.4309 15.08861945 42509,6917.813,95.436,540.991,538.365,0.0
50835.0,STARLINK-3310,PAYLOAD,2022-10-04 19:45:33,15.08853939,0.0001786999999999,53.2185,38.9633,39.6897,320.4225,-5.0175e-05,-1.087e-05,0.0,0 STARLINK-3310,1 50835U 22001AJ  22277.82330629 -.00001087  00000-0 -50175-4 0  9999,2 50835  53.2185  38.9633 0001787  39.6897 320.4225 15.08853939 41277,6917.8380000000025,95.437,540.939,538.467,0.0
50835.0,STARLINK-3310,PAYLOAD,2022-10-05 11:39:25,15.08832271,0.000184,53.218,35.9882,48.8161,311.2990000000001,-0.00032318,-5.427e-05,0.0,0 STARLINK-3310,1 50835U 22001AJ  22278.48571418 -.00005427  00000-0 -32318-3 0  9995,2 50835  53.2180  35.9882 0001840  48.8161 311.2990 15.08832271 42635,6917.904,95.438,541.0419999999998,538.496,0.0
50835.0,STARLINK-3310,PAYLOAD,2022-10-05 18:00:58,15.08839404,0.0001878,53.2189,34.7997,48.2583,311.857,-0.00015545,-2.761e-05,0.0,0 STARLINK-3310,1 50835U 22001AJ  22278.75068209 -.00002761  00000-0 -15545-3 0  9995,2 50835  53.2189  34.7997 0001878  48.2583 311.8570 15.08839404 41411,6917.882,95.438,541.0459999999998,538.448,0.0
50835.0,STARLINK-3310,PAYLOAD,2022-10-06 11:30:12,15.08844526,0.0001803,53.2189,31.5286,40.7896,319.3231,-1.6711000000000004e-06,-3.15e-06,0.0,0 STARLINK-3310,1 50835U 22001AJ  22279.47931506 -.00000315  00000-0 -16711-5 0  9995,2 50835  53.2189  31.5286 0001803  40.7896 319.3231 15.08844526 41529,6917.8669999999975,95.437,540.979,538.484,0.0
50835.0,STARLINK-3310,PAYLOAD,2022-10-06 16:16:21,15.08848487,0.0001896,53.2192,30.6374,49.4156,310.7001,4.468600000000001e-05,4.23e-06,0.0,0 STARLINK-3310,1 50835U 22001AJ  22279.67803164  .00000423  00000-0  44686-4 0  9994,2 50835  53.2192  30.6374 0001896  49.4156 310.7001 15.08848487 42811,6917.854,95.437,541.031,538.408,0.0
50835.0,STARLINK-3310,PAYLOAD,2022-10-07 09:45:36,15.08841743,0.000193,53.2194,27.3668,47.9453,312.1703,0.00032183,4.838e-05,0.0,0 STARLINK-3310,1 50835U 22001AJ  22280.40667631  .00004838  00000-0  32183-3 0  9996,2 50835  53.2194  27.3668 0001930  47.9453 312.1703 15.08841743 41669,6917.875,95.437,541.075,538.405,0.0
50835.0,STARLINK-3310,PAYLOAD,2022-10-07 16:07:09,15.08844393,0.0001965,53.2195,26.1777,48.1518,311.9642,0.00030332,4.543e-05,0.0,0 STARLINK-3310,1 50835U 22001AJ  22280.67163527  .00004543  00000-0  30332-3 0  9997,2 50835  53.2195  26.1777 0001965  48.1518 311.9642 15.08844393 41709,6917.8669999999975,95.437,541.091,538.373,0.0
50835.0,STARLINK-3310,PAYLOAD,2022-10-08 11:11:47,15.08834291,0.0002091,53.2196,22.6097,46.2738,313.8428,-0.00010423,-1.946e-05,0.0,0 STARLINK-3310,1 50835U 22001AJ  22281.46651965 -.00001946  00000-0 -10423-3 0  9998,2 50835  53.2196  22.6097 0002091  46.2738 313.8428 15.08834291 43082,6917.898,95.438,541.2090000000002,538.316,0.0
50835.0,STARLINK-3310,PAYLOAD,2022-10-08 12:47:10,15.08835446,0.0002011,53.2203,22.3127,49.6005,310.5163,-1.6553e-05,-5.52e-06,0.0,0 STARLINK-3310,1 50835U 22001AJ  22281.53276491 -.00000552  00000-0 -16553-4 0  9996,2 50835  53.2203  22.3127 0002011  49.6005 310.5163 15.08835446 41832,6917.894,95.438,541.15,538.368,0.0
